[{"OBJECT_NAME":"STARLINK-5485","OBJECT_ID":"2023-094AV","EPOCH":"2026-03-19T06:00:02.000160","MEAN_MOTION":15.25490967,"ECCENTRICITY":0.00022758,"INCLINATION":43.001,"RA_OF_ASC_NODE":336.3384,"ARG_OF_PERICENTER":255.0008,"MEAN_ANOMALY":51.4599,"EPHEMERIS_TYPE":0,"CLASSIFICATION_TYPE":"U","NORAD_CAT_ID":57261,"ELEMENT_SET_NO":999,"REV_AT_EPOCH":572,"BSTAR":0.0037940895,"MEAN_MOTION_DOT":0.00099075,"MEAN_MOTION_DDOT":0},{"OBJECT_NAME":"STARLINK-5504","OBJECT_ID":"2023-094AW","EPOCH":"2026-03-19T06:00:02.000160","MEAN_MOTION":15.14812407,"ECCENTRICITY":0.00020407,"INCLINATION":42.9996,"RA_OF_ASC_NODE":324.7922,"ARG_OF_PERICENTER":255.0279,"MEAN_ANOMALY":151.3152,"EPHEMERIS_TYPE":0,"CLASSIFICATION_TYPE":"U","NORAD_CAT_ID":57262,"ELEMENT_SET_NO":999,"REV_AT_EPOCH":577,"BSTAR":0.0024210697,"MEAN_MOTION_DOT":0.00045847,"MEAN_MOTION_DDOT":0},{"OBJECT_NAME":"STARLINK-5509","OBJECT_ID":"2023-094AX","EPOCH":"2026-03-19T06:00:02.000160","MEAN_MOTION":15.24886791,"ECCENTRICITY":0.00019281,"INCLINATION":43.0002,"RA_OF_ASC_NODE":336.4536,"ARG_OF_PERICENTER":240.7419,"MEAN_ANOMALY":16.7643,"EPHEMERIS_TYPE":0,"CLASSIFICATION_TYPE":"U","NORAD_CAT_ID":57263,"ELEMENT_SET_NO":999,"REV_AT_EPOCH":558,"BSTAR":0.0038493622,"MEAN_MOTION_DOT":0.00098705,"MEAN_MOTION_DDOT":0},{"OBJECT_NAME":"STARLINK-5858","OBJECT_ID":"2023-094AY","EPOCH":"2026-03-19T06:00:02.000160","MEAN_MOTION":15.12868594,"ECCENTRICITY":0.00021648,"INCLINATION":42.9996,"RA_OF_ASC_NODE":324.7574,"ARG_OF_PERICENTER":257.1773,"MEAN_ANOMALY":163.131,"EPHEMERIS_TYPE":0,"CLASSIFICATION_TYPE":"U","NORAD_CAT_ID":57264,"ELEMENT_SET_NO":999,"REV_AT_EPOCH":567,"BSTAR":0.0024832321,"MEAN_MOTION_DOT":0.00044509,"MEAN_MOTION_DDOT":0},{"OBJECT_NAME":"STARLINK-30198","OBJECT_ID":"2023-096A","EPOCH":"2026-03-19T07:13:11.926272","MEAN_MOTION":15.19976946,"ECCENTRICITY":0.00014271,"INCLINATION":42.995,"RA_OF_ASC_NODE":169.2041,"ARG_OF_PERICENTER":285.0574,"MEAN_ANOMALY":75.0117,"EPHEMERIS_TYPE":0,"CLASSIFICATION_TYPE":"U","NORAD_CAT_ID":57290,"ELEMENT_SET_NO":999,"REV_AT_EPOCH":14908,"BSTAR":-0.00021292219,"MEAN_MOTION_DOT":-4.909e-5,"MEAN_MOTION_DDOT":0},{"OBJECT_NAME":"STARLINK-30239","OBJECT_ID":"2023-096B","EPOCH":"2026-03-19T06:00:02.000160","MEAN_MOTION":15.25559246,"ECCENTRICITY":0.00013173,"INCLINATION":43.0005,"RA_OF_ASC_NODE":169.0641,"ARG_OF_PERICENTER":247.2709,"MEAN_ANOMALY":15.4266,"EPHEMERIS_TYPE":0,"CLASSIFICATION_TYPE":"U","NORAD_CAT_ID":57291,"ELEMENT_SET_NO":999,"REV_AT_EPOCH":577,"BSTAR":0.0026669559,"MEAN_MOTION_DOT":0.00069426,"MEAN_MOTION_DDOT":0},{"OBJECT_NAME":"STARLINK-30235","OBJECT_ID":"2023-096E","EPOCH":"2026-03-19T06:00:02.000160","MEAN_MOTION":15.2468476,"ECCENTRICITY":0.000149,"INCLINATION":43.0004,"RA_OF_ASC_NODE":169.0555,"ARG_OF_PERICENTER":250.4307,"MEAN_ANOMALY":15.7546,"EPHEMERIS_TYPE":0,"CLASSIFICATION_TYPE":"U","NORAD_CAT_ID":57294,"ELEMENT_SET_NO":999,"REV_AT_EPOCH":567,"BSTAR":0.0027008843,"MEAN_MOTION_DOT":0.00068476,"MEAN_MOTION_DDOT":0},{"OBJECT_NAME":"STARLINK-30236","OBJECT_ID":"2023-096L","EPOCH":"2026-03-19T06:00:02.000160","MEAN_MOTION":15.25089382,"ECCENTRICITY":2.154e-5,"INCLINATION":42.9998,"RA_OF_ASC_NODE":169.1553,"ARG_OF_PERICENTER":188.0077,"MEAN_ANOMALY":30.6781,"EPHEMERIS_TYPE":0,"CLASSIFICATION_TYPE":"U","NORAD_CAT_ID":57300,"ELEMENT_SET_NO":999,"REV_AT_EPOCH":573,"BSTAR":0.0023677389,"MEAN_MOTION_DOT":0.00060668,"MEAN_MOTION_DDOT":0},{"OBJECT_NAME":"STARLINK-30201","OBJECT_ID":"2023-096M","EPOCH":"2026-03-19T06:00:02.000160","MEAN_MOTION":15.26631791,"ECCENTRICITY":0.00013776,"INCLINATION":43,"RA_OF_ASC_NODE":169.1672,"ARG_OF_PERICENTER":269.8442,"MEAN_ANOMALY":305.7873,"EPHEMERIS_TYPE":0,"CLASSIFICATION_TYPE":"U","NORAD_CAT_ID":57301,"ELEMENT_SET_NO":999,"REV_AT_EPOCH":578,"BSTAR":0.0023245595,"MEAN_MOTION_DOT":0.00062417,"MEAN_MOTION_DDOT":0},{"OBJECT_NAME":"STARLINK-30233","OBJECT_ID":"2023-096N","EPOCH":"2026-03-19T06:00:02.000160","MEAN_MOTION":15.22011755,"ECCENTRICITY":0.00014906,"INCLINATION":43.0003,"RA_OF_ASC_NODE":169.0016,"ARG_OF_PERICENTER":279.7213,"MEAN_ANOMALY":358.1402,"EPHEMERIS_TYPE":0,"CLASSIFICATION_TYPE":"U","NORAD_CAT_ID":57302,"ELEMENT_SET_NO":999,"REV_AT_EPOCH":578,"BSTAR":0.0027288442,"MEAN_MOTION_DOT":0.00063851,"MEAN_MOTION_DDOT":0},{"OBJECT_NAME":"STARLINK-30184","OBJECT_ID":"2023-096W","EPOCH":"2026-03-18T20:42:06.049728","MEAN_MOTION":15.27581513,"ECCENTRICITY":0.00012748,"INCLINATION":43.0006,"RA_OF_ASC_NODE":142.6586,"ARG_OF_PERICENTER":275.4999,"MEAN_ANOMALY":84.5707,"EPHEMERIS_TYPE":0,"CLASSIFICATION_TYPE":"U","NORAD_CAT_ID":57310,"ELEMENT_SET_NO":999,"REV_AT_EPOCH":14845,"BSTAR":8.0832155e-5,"MEAN_MOTION_DOT":1.963e-5,"MEAN_MOTION_DDOT":0},{"OBJECT_NAME":"STARLINK-6290","OBJECT_ID":"2023-099A","EPOCH":"2026-03-19T06:00:02.000160","MEAN_MOTION":15.11411265,"ECCENTRICITY":0.00016138,"INCLINATION":43.0012,"RA_OF_ASC_NODE":197.1114,"ARG_OF_PERICENTER":266.9935,"MEAN_ANOMALY":96.6831,"EPHEMERIS_TYPE":0,"CLASSIFICATION_TYPE":"U","NORAD_CAT_ID":57328,"ELEMENT_SET_NO":999,"REV_AT_EPOCH":577,"BSTAR":0.0041410114,"MEAN_MOTION_DOT":0.00071677,"MEAN_MOTION_DDOT":0},{"OBJECT_NAME":"STARLINK-6138","OBJECT_ID":"2023-099B","EPOCH":"2026-03-19T06:00:02.000160","MEAN_MOTION":15.10561478,"ECCENTRICITY":0.00023525,"INCLINATION":43.0003,"RA_OF_ASC_NODE":197.0148,"ARG_OF_PERICENTER":254.7276,"MEAN_ANOMALY":148.3156,"EPHEMERIS_TYPE":0,"CLASSIFICATION_TYPE":"U","NORAD_CAT_ID":57329,"ELEMENT_SET_NO":999,"REV_AT_EPOCH":572,"BSTAR":0.0041974668,"MEAN_MOTION_DOT":0.00070957,"MEAN_MOTION_DDOT":0},{"OBJECT_NAME":"STARLINK-6212","OBJECT_ID":"2023-099C","EPOCH":"2026-03-19T06:00:02.000160","MEAN_MOTION":15.10303398,"ECCENTRICITY":0.0002014,"INCLINATION":43.0015,"RA_OF_ASC_NODE":197.1256,"ARG_OF_PERICENTER":244.8609,"MEAN_ANOMALY":113.5508,"EPHEMERIS_TYPE":0,"CLASSIFICATION_TYPE":"U","NORAD_CAT_ID":57330,"ELEMENT_SET_NO":999,"REV_AT_EPOCH":577,"BSTAR":0.0043391467,"MEAN_MOTION_DOT":0.00072856,"MEAN_MOTION_DDOT":0},{"OBJECT_NAME":"STARLINK-6234","OBJECT_ID":"2023-099D","EPOCH":"2026-03-19T06:00:02.000160","MEAN_MOTION":15.10807842,"ECCENTRICITY":0.00022342,"INCLINATION":43.0008,"RA_OF_ASC_NODE":197.0643,"ARG_OF_PERICENTER":249.4391,"MEAN_ANOMALY":134.6196,"EPHEMERIS_TYPE":0,"CLASSIFICATION_TYPE":"U","NORAD_CAT_ID":57331,"ELEMENT_SET_NO":999,"REV_AT_EPOCH":577,"BSTAR":0.0041622199,"MEAN_MOTION_DOT":0.0007084,"MEAN_MOTION_DDOT":0},{"OBJECT_NAME":"STARLINK-5831","OBJECT_ID":"2023-099E","EPOCH":"2026-03-19T06:00:02.000160","MEAN_MOTION":15.1014411,"ECCENTRICITY":0.00021196,"INCLINATION":43.0017,"RA_OF_ASC_NODE":197.0992,"ARG_OF_PERICENTER":242.8281,"MEAN_ANOMALY":126.4031,"EPHEMERIS_TYPE":0,"CLASSIFICATION_TYPE":"U","NORAD_CAT_ID":57332,"ELEMENT_SET_NO":999,"REV_AT_EPOCH":577,"BSTAR":0.0043705146,"MEAN_MOTION_DOT":0.00073064,"MEAN_MOTION_DDOT":0}]
