STARLINK-5485           
1 57261U 23094AV  26078.25002315  .00099075  00000+0  37941-2 0  9995
2 57261  43.0010 336.3384 0002275 255.0008  51.4599 15.25490967  5722
STARLINK-5504           
1 57262U 23094AW  26078.25002315  .00045847  00000+0  24211-2 0  9990
2 57262  42.9996 324.7922 0002040 255.0279 151.3152 15.14812407  5778
STARLINK-5509           
1 57263U 23094AX  26078.25002315  .00098705  00000+0  38494-2 0  9990
2 57263  43.0002 336.4536 0001928 240.7419  16.7643 15.24886791  5587
STARLINK-5858           
1 57264U 23094AY  26078.25002315  .00044509  00000+0  24832-2 0  9995
2 57264  42.9996 324.7574 0002164 257.1773 163.1310 15.12868594  5674
STARLINK-30198          
1 57290U 23096A   26078.30083248 -.00004909  00000+0 -21292-3 0  9996
2 57290  42.9950 169.2041 0001427 285.0574  75.0117 15.19976946149082
STARLINK-30239          
1 57291U 23096B   26078.25002315  .00069426  00000+0  26670-2 0  9994
2 57291  43.0005 169.0641 0001317 247.2709  15.4266 15.25559246  5775
STARLINK-30235          
1 57294U 23096E   26078.25002315  .00068476  00000+0  27009-2 0  9998
2 57294  43.0004 169.0555 0001490 250.4307  15.7546 15.24684760  5675
STARLINK-30236          
1 57300U 23096L   26078.25002315  .00060668  00000+0  23677-2 0  9998
2 57300  42.9998 169.1553 0000215 188.0077  30.6781 15.25089382  5730
STARLINK-30201          
1 57301U 23096M   26078.25002315  .00062417  00000+0  23246-2 0  9995
2 57301  43.0000 169.1672 0001377 269.8442 305.7873 15.26631791  5784
STARLINK-30233          
1 57302U 23096N   26078.25002315  .00063851  00000+0  27288-2 0  9999
2 57302  43.0003 169.0016 0001490 279.7213 358.1402 15.22011755  5789
STARLINK-30184          
1 57310U 23096W   26077.86257002  .00001963  00000+0  80832-4 0  9991
2 57310  43.0006 142.6586 0001274 275.4999  84.5707 15.27581513148453
STARLINK-6290           
1 57328U 23099A   26078.25002315  .00071677  00000+0  41410-2 0  9998
2 57328  43.0012 197.1114 0001613 266.9935  96.6831 15.11411265  5771
STARLINK-6138           
1 57329U 23099B   26078.25002315  .00070957  00000+0  41975-2 0  9995
2 57329  43.0003 197.0148 0002352 254.7276 148.3156 15.10561478  5723
STARLINK-6212           
1 57330U 23099C   26078.25002315  .00072856  00000+0  43391-2 0  9991
2 57330  43.0015 197.1256 0002014 244.8609 113.5508 15.10303398  5779
STARLINK-6234           
1 57331U 23099D   26078.25002315  .00070840  00000+0  41622-2 0  9998
2 57331  43.0008 197.0643 0002234 249.4391 134.6196 15.10807842  5774
STARLINK-5831           
1 57332U 23099E   26078.25002315  .00073064  00000+0  43705-2 0  9994
2 57332  43.0017 197.0992 0002119 242.8281 126.4031 15.10144110  5778
